start=new Date('2023-06-13T00:00:00.000Z').valueOf();
sats=[{"ELEMENT_SET_NO":"999","GP_ID":"233799862","EPOCH":"2023-06-12T21:53:24.549216","MEAN_ELEMENT_THEORY":"SGP4","OBJECT_ID":"2021-017BC","MEAN_MOTION_DDOT":"0.0000000000000","INCLINATION":"53.0549","OBJECT_TYPE":"PAYLOAD","MEAN_MOTION":"15.06399606","TIME_SYSTEM":"UTC","REF_FRAME":"TEME","PERIOD":"95.592","TLE_LINE1":"1 47772U 21017BC  23163.91208969  .00008414  00000-0  58311-3 0  9995","SITE":"AFETR","CLASSIFICATION_TYPE":"U","FILE":"3931605","ECCENTRICITY":"0.00011970","ARG_OF_PERICENTER":"81.4104","MEAN_ANOMALY":"278.7020","TLE_LINE2":"2 47772  53.0549  34.2808 0001197  81.4104 278.7020 15.06399606126758","RA_OF_ASC_NODE":"34.2808","PERIAPSIS":"546.386","CENTER_NAME":"EARTH","MEAN_MOTION_DOT":"0.00008414","COUNTRY_CODE":"US","APOAPSIS":"548.044","DECAY_DATE":null,"NORAD_CAT_ID":"47772","SEMIMAJOR_AXIS":"6925.350","REV_AT_EPOCH":"12675","OBJECT_NAME":"STARLINK-2195","RCS_SIZE":"LARGE","LAUNCH_DATE":"2021-03-04","EPHEMERIS_TYPE":"0","BSTAR":"0.00058311000000"},{"TLE_LINE1":"1 47773U 21017BD  23163.90840179  .00021846  00000-0  14813-2 0  9992","PERIOD":"95.593","FILE":"3931605","ECCENTRICITY":"0.00014310","CLASSIFICATION_TYPE":"U","SITE":"AFETR","MEAN_MOTION":"15.06390894","REF_FRAME":"TEME","TIME_SYSTEM":"UTC","INCLINATION":"53.0550","MEAN_MOTION_DDOT":"0.0000000000000","OBJECT_ID":"2021-017BD","MEAN_ELEMENT_THEORY":"SGP4","EPOCH":"2023-06-12T21:48:05.914656","OBJECT_TYPE":"PAYLOAD","ELEMENT_SET_NO":"999","GP_ID":"233800107","OBJECT_NAME":"STARLINK-2196","REV_AT_EPOCH":"12674","SEMIMAJOR_AXIS":"6925.376","BSTAR":"0.00148130000000","EPHEMERIS_TYPE":"0","LAUNCH_DATE":"2021-03-04","RCS_SIZE":"LARGE","NORAD_CAT_ID":"47773","DECAY_DATE":null,"APOAPSIS":"548.232","COUNTRY_CODE":"US","CENTER_NAME":"EARTH","PERIAPSIS":"546.250","MEAN_MOTION_DOT":"0.00021846","ARG_OF_PERICENTER":"88.9903","RA_OF_ASC_NODE":"34.2981","TLE_LINE2":"2 47773  53.0550  34.2981 0001431  88.9903 271.1250 15.06390894126744","MEAN_ANOMALY":"271.1250"},{"COUNTRY_CODE":"US","DECAY_DATE":null,"APOAPSIS":"548.171","NORAD_CAT_ID":"47774","SEMIMAJOR_AXIS":"6925.297","REV_AT_EPOCH":"12675","OBJECT_NAME":"STARLINK-2197","RCS_SIZE":"LARGE","EPHEMERIS_TYPE":"0","LAUNCH_DATE":"2021-03-04","BSTAR":"0.00082819000000","ARG_OF_PERICENTER":"72.0044","MEAN_ANOMALY":"288.1103","TLE_LINE2":"2 47774  53.0550  34.3160 0001457  72.0044 288.1103 15.06416738126755","RA_OF_ASC_NODE":"34.3160","PERIAPSIS":"546.153","CENTER_NAME":"EARTH","MEAN_MOTION_DOT":"0.00012081","MEAN_MOTION":"15.06416738","TIME_SYSTEM":"UTC","REF_FRAME":"TEME","TLE_LINE1":"1 47774U 21017BE  23163.90471409  .00012081  00000-0  82819-3 0  9992","PERIOD":"95.591","SITE":"AFETR","CLASSIFICATION_TYPE":"U","FILE":"3931605","ECCENTRICITY":"0.00014570","ELEMENT_SET_NO":"999","GP_ID":"233799360","EPOCH":"2023-06-12T21:42:47.297376","MEAN_ELEMENT_THEORY":"SGP4","OBJECT_ID":"2021-017BE","MEAN_MOTION_DDOT":"0.0000000000000","INCLINATION":"53.0550","OBJECT_TYPE":"PAYLOAD"},{"REV_AT_EPOCH":"12680","OBJECT_NAME":"STARLINK-2198","SEMIMAJOR_AXIS":"6925.385","BSTAR":"0.00077507000000","LAUNCH_DATE":"2021-03-04","EPHEMERIS_TYPE":"0","RCS_SIZE":"LARGE","NORAD_CAT_ID":"47775","DECAY_DATE":null,"APOAPSIS":"547.873","COUNTRY_CODE":"US","CENTER_NAME":"EARTH","PERIAPSIS":"546.627","MEAN_MOTION_DOT":"0.00011278","ARG_OF_PERICENTER":"93.0630","RA_OF_ASC_NODE":"34.2712","TLE_LINE2":"2 47775  53.0552  34.2712 0000900  93.0630 267.0461 15.06388054126804","MEAN_ANOMALY":"267.0461","TLE_LINE1":"1 47775U 21017BF  23163.91577652  .00011278  00000-0  77507-3 0  9996","PERIOD":"95.593","ECCENTRICITY":"0.00009000","FILE":"3931605","CLASSIFICATION_TYPE":"U","SITE":"AFETR","MEAN_MOTION":"15.06388054","REF_FRAME":"TEME","TIME_SYSTEM":"UTC","INCLINATION":"53.0552","OBJECT_ID":"2021-017BF","MEAN_MOTION_DDOT":"0.0000000000000","MEAN_ELEMENT_THEORY":"SGP4","EPOCH":"2023-06-12T21:58:43.091328","OBJECT_TYPE":"PAYLOAD","ELEMENT_SET_NO":"999","GP_ID":"233799610"},{"MEAN_MOTION_DOT":"0.00020366","CENTER_NAME":"EARTH","PERIAPSIS":"546.313","TLE_LINE2":"2 47776  53.0551  24.4424 0001350  87.1340 272.9804 15.06388869126256","RA_OF_ASC_NODE":"24.4424","MEAN_ANOMALY":"272.9804","ARG_OF_PERICENTER":"87.1340","BSTAR":"0.00138260000000","RCS_SIZE":"LARGE","EPHEMERIS_TYPE":"0","LAUNCH_DATE":"2021-03-04","REV_AT_EPOCH":"12625","OBJECT_NAME":"STARLINK-2209","SEMIMAJOR_AXIS":"6925.383","NORAD_CAT_ID":"47776","COUNTRY_CODE":"US","APOAPSIS":"548.183","DECAY_DATE":null,"OBJECT_TYPE":"PAYLOAD","MEAN_MOTION_DDOT":"0.0000000000000","OBJECT_ID":"2021-017BG","INCLINATION":"53.0551","EPOCH":"2023-06-12T21:01:39.264960","MEAN_ELEMENT_THEORY":"SGP4","GP_ID":"233774764","ELEMENT_SET_NO":"999","CLASSIFICATION_TYPE":"U","ECCENTRICITY":"0.00013500","FILE":"3931440","SITE":"AFETR","TLE_LINE1":"1 47776U 21017BG  23163.87614890  .00020366  00000-0  13826-2 0  9999","PERIOD":"95.593","REF_FRAME":"TEME","TIME_SYSTEM":"UTC","MEAN_MOTION":"15.06388869"},{"SITE":"AFETR","ECCENTRICITY":"0.00011500","FILE":"3931440","CLASSIFICATION_TYPE":"U","PERIOD":"95.593","TLE_LINE1":"1 47777U 21017BH  23163.87983732  .00020494  00000-0  13911-2 0  9991","TIME_SYSTEM":"UTC","REF_FRAME":"TEME","MEAN_MOTION":"15.06389526","OBJECT_TYPE":"PAYLOAD","MEAN_ELEMENT_THEORY":"SGP4","EPOCH":"2023-06-12T21:06:57.944448","INCLINATION":"53.0551","MEAN_MOTION_DDOT":"0.0000000000000","OBJECT_ID":"2021-017BH","GP_ID":"233774266","ELEMENT_SET_NO":"999","LAUNCH_DATE":"2021-03-04","EPHEMERIS_TYPE":"0","RCS_SIZE":"LARGE","BSTAR":"0.00139110000000","SEMIMAJOR_AXIS":"6925.381","REV_AT_EPOCH":"12625","OBJECT_NAME":"STARLINK-2210","DECAY_DATE":null,"APOAPSIS":"548.042","COUNTRY_CODE":"US","NORAD_CAT_ID":"47777","MEAN_MOTION_DOT":"0.00020494","PERIAPSIS":"546.449","CENTER_NAME":"EARTH","MEAN_ANOMALY":"273.2450","RA_OF_ASC_NODE":"24.4284","TLE_LINE2":"2 47777  53.0551  24.4284 0001150  86.8670 273.2450 15.06389526126253","ARG_OF_PERICENTER":"86.8670"},{"CENTER_NAME":"EARTH","PERIAPSIS":"546.583","MEAN_MOTION_DOT":"0.00002043","ARG_OF_PERICENTER":"76.6269","TLE_LINE2":"2 47778  53.0561  24.2800 0000941  76.6269 283.4825 15.06393095126902","RA_OF_ASC_NODE":"24.2800","MEAN_ANOMALY":"283.4825","OBJECT_NAME":"STARLINK-2211","REV_AT_EPOCH":"12690","SEMIMAJOR_AXIS":"6925.370","BSTAR":"0.00015604000000","RCS_SIZE":"LARGE","LAUNCH_DATE":"2021-03-04","EPHEMERIS_TYPE":"0","NORAD_CAT_ID":"47778","COUNTRY_CODE":"US","APOAPSIS":"547.886","DECAY_DATE":null,"OBJECT_ID":"2021-017BJ","MEAN_MOTION_DDOT":"0.0000000000000","INCLINATION":"53.0561","EPOCH":"2023-06-12T21:54:43.836768","MEAN_ELEMENT_THEORY":"SGP4","OBJECT_TYPE":"PAYLOAD","ELEMENT_SET_NO":"999","GP_ID":"233798861","TLE_LINE1":"1 47778U 21017BJ  23163.91300737  .00002043  00000-0  15604-3 0  9997","PERIOD":"95.593","CLASSIFICATION_TYPE":"U","FILE":"3931605","ECCENTRICITY":"0.00009410","SITE":"AFETR","MEAN_MOTION":"15.06393095","REF_FRAME":"TEME","TIME_SYSTEM":"UTC"},{"ARG_OF_PERICENTER":"120.8407","TLE_LINE2":"2 47779  53.0461 340.2310 0002799 120.8407  30.3901 15.42368414  1305","RA_OF_ASC_NODE":"340.2310","MEAN_ANOMALY":"30.3901","CENTER_NAME":"EARTH","PERIAPSIS":"437.215","MEAN_MOTION_DOT":"0.00159392","NORAD_CAT_ID":"47779","COUNTRY_CODE":"US","APOAPSIS":"441.032","DECAY_DATE":null,"REV_AT_EPOCH":"130","OBJECT_NAME":"STARLINK-2212","SEMIMAJOR_AXIS":"6817.258","BSTAR":"0.00357120000000","RCS_SIZE":"LARGE","LAUNCH_DATE":"2021-03-04","EPHEMERIS_TYPE":"0","ELEMENT_SET_NO":"999","GP_ID":"233799111","MEAN_MOTION_DDOT":"0.0000000000000","OBJECT_ID":"2021-017BK","INCLINATION":"53.0461","EPOCH":"2023-06-13T00:00:00.999648","MEAN_ELEMENT_THEORY":"SGP4","OBJECT_TYPE":"PAYLOAD","MEAN_MOTION":"15.42368414","REF_FRAME":"TEME","TIME_SYSTEM":"UTC","PERIOD":"93.363","TLE_LINE1":"1 47779U 21017BK  23164.00001157  .00159392  00000-0  35712-2 0  9994","CLASSIFICATION_TYPE":"U","ECCENTRICITY":"0.00027990","FILE":"3931605","SITE":"AFETR"},{"ELEMENT_SET_NO":"999","GP_ID":"233774278","EPOCH":"2023-06-12T20:56:20.448096","MEAN_ELEMENT_THEORY":"SGP4","MEAN_MOTION_DDOT":"0.0000000000000","OBJECT_ID":"2021-017BL","INCLINATION":"53.0551","OBJECT_TYPE":"PAYLOAD","MEAN_MOTION":"15.06395344","TIME_SYSTEM":"UTC","REF_FRAME":"TEME","PERIOD":"95.592","TLE_LINE1":"1 47780U 21017BL  23163.87245889  .00002750  00000-0  20348-3 0  9997","SITE":"AFETR","CLASSIFICATION_TYPE":"U","FILE":"3931441","ECCENTRICITY":"0.00009620","ARG_OF_PERICENTER":"86.2880","MEAN_ANOMALY":"273.8219","TLE_LINE2":"2 47780  53.0551  24.4619 0000962  86.2880 273.8219 15.06395344126261","RA_OF_ASC_NODE":"24.4619","PERIAPSIS":"546.562","CENTER_NAME":"EARTH","MEAN_MOTION_DOT":"0.00002750","COUNTRY_CODE":"US","DECAY_DATE":null,"APOAPSIS":"547.894","NORAD_CAT_ID":"47780","SEMIMAJOR_AXIS":"6925.363","OBJECT_NAME":"STARLINK-2213","REV_AT_EPOCH":"12626","RCS_SIZE":"LARGE","EPHEMERIS_TYPE":"0","LAUNCH_DATE":"2021-03-04","BSTAR":"0.00020348000000"},{"RA_OF_ASC_NODE":"24.3163","TLE_LINE2":"2 47781  53.0553  24.3163 0001112  58.6982 301.4116 15.06406371126897","MEAN_ANOMALY":"301.4116","ARG_OF_PERICENTER":"58.6982","MEAN_MOTION_DOT":"0.00023521","CENTER_NAME":"EARTH","PERIAPSIS":"546.424","NORAD_CAT_ID":"47781","APOAPSIS":"547.964","DECAY_DATE":null,"COUNTRY_CODE":"US","BSTAR":"0.00159240000000","LAUNCH_DATE":"2021-03-04","EPHEMERIS_TYPE":"0","RCS_SIZE":"LARGE","OBJECT_NAME":"STARLINK-2223","REV_AT_EPOCH":"12689","SEMIMAJOR_AXIS":"6925.329","GP_ID":"233800108","ELEMENT_SET_NO":"999","OBJECT_TYPE":"PAYLOAD","INCLINATION":"53.0553","OBJECT_ID":"2021-017BM","MEAN_MOTION_DDOT":"0.0000000000000","MEAN_ELEMENT_THEORY":"SGP4","EPOCH":"2023-06-12T21:44:07.365120","REF_FRAME":"TEME","TIME_SYSTEM":"UTC","MEAN_MOTION":"15.06406371","ECCENTRICITY":"0.00011120","FILE":"3931605","CLASSIFICATION_TYPE":"U","SITE":"AFETR","TLE_LINE1":"1 47781U 21017BM  23163.90564080  .00023521  00000-0  15924-2 0  9991","PERIOD":"95.592"}];
